{"type":"FeatureCollection","features":[{"type":"Feature","properties":{},"geometry":{"type":"Polygon","coordinates":[[[-77.06,42.64],[-77.11,42.52],[-77.19,42.43],[-77.2,42.44],[-77.17,42.51],[-77.15,42.57],[-77.11,42.57],[-77.08,42.65],[-77.06,42.64],[-77.06,42.64],[-77.06,42.64]]]}},{"type":"Feature","properties":{},"geometry":{"type":"Polygon","coordinates":[[[-76.88,42.42],[-76.91,42.46],[-76.92,42.59],[-76.95,42.73],[-76.97,42.88],[-76.95,42.87],[-76.88,42.68],[-76.88,42.54],[-76.88,42.44],[-76.88,42.42],[-76.88,42.42],[-76.88,42.42]]]}},{"type":"Feature","properties":{},"geometry":{"type":"Polygon","coordinates":[[[31.17,66.11],[31.17,66.11],[31.17,66.11],[31.17,66.11],[31.21,66.06],[31.24,66.0],[31.28,65.96],[31.33,65.92],[31.29,65.91],[31.16,65.91],[30.95,65.96],[30.65,66.05],[30.7,66.13],[30.72,66.19],[30.79,66.23],[30.9,66.26],[31.03,66.27],[31.1,66.25],[31.17,66.14],[31.17,66.11]]]}},{"type":"Feature","properties":{},"geometry":{"type":"Polygon","coordinates":[[[-52.6,-32.59],[-52.62,-32.64],[-52.66,-32.7],[-52.69,-32.76],[-52.73,-32.81],[-52.77,-32.88],[-52.81,-32.91],[-52.85,-32.92],[-52.89,-32.91],[-52.94,-32.86],[-52.98,-32.82],[-53.02,-32.8],[-53.07,-32.81],[-53.13,-32.85],[-53.17,-32.96],[-53.23,-33.06],[-53.29,-33.08],[-53.33,-33.09],[-53.35,-33.1],[-53.38,-33.12],[-53.41,-33.16],[-53.44,-33.24],[-53.45,-33.35],[-53.44,-33.47],[-53.45,-33.53],[-53.49,-33.55],[-53.51,-33.56],[-53.53,-33.55],[-53.54,-33.54],[-53.56,-33.51],[-53.57,-33.48],[-53.57,-33.43],[-53.58,-33.37],[-53.59,-33.3],[-53.6,-33.24],[-53.62,-33.19],[-53.62,-33.14],[-53.6,-33.08],[-53.55,-33.02],[-53.47,-32.96],[-53.41,-32.95],[-53.35,-32.93],[-53.32,-32.88],[-53.31,-32.83],[-53.31,-32.79],[-53.3,-32.76],[-53.27,-32.73],[-53.22,-32.71],[-53.18,-32.68],[-53.14,-32.65],[-53.09,-32.62],[-53.03,-32.6],[-52.99,-32.53],[-52.96,-32.47],[-52.88,-32.43],[-52.81,-32.39],[-52.8,-32.35],[-52.79,-32.31],[-52.78,-32.26],[-52.74,-32.22],[-52.72,-32.2],[-52.7,-32.2],[-52.69,-32.24],[-52.69,-32.35],[-52.65,-32.39],[-52.63,-32.45],[-52.59,-32.5],[-52.59,-32.54],[-52.6,-32.59],[-52.6,-32.59],[-52.6,-32.59],[-52.6,-32.59]]]}},{"type":"Feature","properties":{},"geometry":{"type":"Polygon","coordinates":[[[-97.96,50.36],[-98.02,50.3],[-98.07,50.27],[-98.15,50.24],[-98.24,50.21],[-98.33,50.2],[-98.4,50.2],[-98.45,50.21],[-98.52,50.24],[-98.55,50.29],[-98.55,50.42],[-98.57,50.49],[-98.61,50.57],[-98.72,50.74],[-98.81,50.86],[-98.85,50.95],[-98.94,51.01],[-98.99,51.08],[-99.01,51.11],[-99.01,51.14],[-98.99,51.15],[-98.94,51.12],[-98.88,51.04],[-98.87,51.03],[-98.85,51.04],[-98.83,51.07],[-98.84,51.1],[-98.86,51.11],[-98.9,51.19],[-98.95,51.2],[-98.98,51.22],[-99.03,51.27],[-99.08,51.34],[-99.14,51.5],[-99.16,51.54],[-99.26,51.56],[-99.32,51.62],[-99.37,51.64],[-99.43,51.63],[-99.53,51.55],[-99.54,51.58],[-99.54,51.66],[-99.55,51.7],[-99.55,51.71],[-99.49,51.76],[-99.44,51.78],[-99.39,51.78],[-99.34,51.76],[-99.29,51.72],[-99.24,51.65],[-99.22,51.64],[-99.18,51.65],[-99.17,51.68],[-99.18,51.76],[-99.17,51.78],[-99.11,51.74],[-99.06,51.69],[-99.0,51.51],[-98.96,51.43],[-98.92,51.4],[-98.91,51.4],[-98.9,51.43],[-98.91,51.51],[-98.97,51.68],[-98.93,51.7],[-98.89,51.71],[-98.86,51.71],[-98.83,51.68],[-98.79,51.64],[-98.76,51.59],[-98.75,51.55],[-98.78,51.47],[-98.78,51.41],[-98.75,51.36],[-98.7,51.33],[-98.59,51.27],[-98.57,51.24],[-98.58,51.22],[-98.63,51.17],[-98.67,51.1],[-98.72,51.09],[-98.72,51.06],[-98.75,51.02],[-98.76,50.99],[-98.74,50.93],[-98.72,50.91],[-98.5,50.86],[-98.41,50.82],[-98.24,50.72],[-98.17,50.66],[-98.07,50.55],[-97.97,50.47],[-97.95,50.42],[-97.96,50.36],[-97.96,50.36],[-97.96,50.36]]]}},{"type":"Feature","properties":{},"geometry":{"type":"Polygon","coordinates":[[[-99.67,51.61],[-99.77,51.59],[-99.86,51.64],[-99.94,51.72],[-99.95,51.76],[-99.9,51.84],[-99.95,52.0],[-99.98,52.04],[-100.0,52.04],[-100.01,52.02],[-99.98,51.81],[-100.0,51.74],[-100.01,51.73],[-100.03,51.73],[-100.05,51.76],[-100.11,51.89],[-100.16,52.12],[-100.17,52.25],[-100.16,52.31],[-100.14,52.35],[-100.03,52.46],[-99.99,52.57],[-100.05,52.65],[-100.06,52.76],[-100.1,52.8],[-100.24,52.86],[-100.27,52.87],[-100.29,52.86],[-100.33,52.83],[-100.34,52.81],[-100.33,52.79],[-100.28,52.78],[-100.24,52.64],[-100.26,52.62],[-100.28,52.62],[-100.3,52.65],[-100.34,52.67],[-100.36,52.71],[-100.42,52.77],[-100.44,52.92],[-100.45,52.95],[-100.52,52.97],[-100.56,53.0],[-100.6,53.0],[-100.67,52.98],[-100.67,52.96],[-100.62,52.89],[-100.68,52.78],[-100.75,52.75],[-100.82,52.75],[-100.84,52.77],[-100.83,52.8],[-100.83,52.81],[-100.91,52.81],[-100.94,52.84],[-100.99,52.88],[-100.98,52.93],[-100.99,52.99],[-101.01,53.01],[-101.1,53.08],[-101.09,53.1],[-101.05,53.12],[-100.96,53.15],[-100.9,53.1],[-100.82,53.09],[-100.73,53.1],[-100.64,53.12],[-100.59,53.14],[-100.54,53.17],[-100.51,53.17],[-100.33,53.11],[-100.11,53.05],[-99.84,52.97],[-99.79,52.95],[-99.76,52.91],[-99.7,52.92],[-99.68,52.91],[-99.68,52.9],[-99.7,52.81],[-99.66,52.61],[-99.66,52.54],[-99.68,52.47],[-99.71,52.41],[-99.84,52.24],[-99.83,52.15],[-99.81,52.09],[-99.75,52.03],[-99.74,52.0],[-99.74,51.97],[-99.76,51.94],[-99.8,51.88],[-99.8,51.83],[-99.78,51.76],[-99.75,51.75],[-99.67,51.85],[-99.65,51.84],[-99.64,51.72],[-99.62,51.65],[-99.62,51.63],[-99.64,51.62],[-99.67,51.61],[-99.67,51.61],[-99.67,51.61]]]}},{"type":"Feature","properties":{},"geometry":{"type":"Polygon","coordinates":[[[-68.26,51.4],[-68.26,51.4],[-68.26,51.4],[-68.26,51.4],[-68.22,51.35],[-68.2,51.31],[-68.22,51.27],[-68.31,51.19],[-68.35,51.15],[-68.45,51.12],[-68.53,51.07],[-68.64,50.99],[-68.74,50.72],[-68.74,50.78],[-68.74,50.84],[-68.74,50.92],[-68.78,51.0],[-68.87,51.09],[-69.0,51.18],[-69.15,51.27],[-69.18,51.32],[-69.16,51.39],[-69.13,51.52],[-69.15,51.58],[-69.25,51.68],[-69.23,51.7],[-69.2,51.68],[-69.14,51.66],[-69.12,51.66],[-69.1,51.71],[-69.09,51.81],[-69.06,51.84],[-69.04,51.68],[-69.01,51.63],[-68.98,51.63],[-68.93,51.65],[-68.86,51.72],[-68.81,51.68],[-68.77,51.68],[-68.7,51.69],[-68.64,51.71],[-68.6,51.76],[-68.53,51.76],[-68.5,51.81],[-68.46,51.88],[-68.44,51.87],[-68.43,51.86],[-68.44,51.82],[-68.48,51.7],[-68.46,51.67],[-68.32,51.64],[-68.25,51.69],[-68.21,51.71],[-68.2,51.69],[-68.27,51.62],[-68.27,51.57],[-68.29,51.54],[-68.29,51.51],[-68.25,51.47],[-68.26,51.4]],[[-68.54,51.39],[-68.54,51.39],[-68.54,51.39],[-68.54,51.39],[-68.58,51.46],[-68.56,51.48],[-68.54,51.47],[-68.47,51.4],[-68.44,51.38],[-68.39,51.37],[-68.41,51.44],[-68.4,51.5],[-68.4,51.53],[-68.49,51.59],[-68.61,51.63],[-68.72,51.63],[-68.78,51.62],[-68.84,51.6],[-68.96,51.54],[-69.05,51.47],[-69.1,51.41],[-69.09,51.37],[-69.06,51.33],[-69.05,51.3],[-69.01,51.28],[-68.92,51.24],[-68.86,51.2],[-68.76,51.16],[-68.68,51.16],[-68.6,51.17],[-68.54,51.2],[-68.47,51.21],[-68.43,51.23],[-68.4,51.26],[-68.4,51.28],[-68.49,51.35],[-68.54,51.39]]]}},{"type":"Feature","properties":{},"geometry":{"type":"Polygon","coordinates":[[[35.4,45.26],[35.28,45.3],[35.09,45.36],[35.06,45.38],[35.04,45.4],[35.04,45.43],[35.08,45.5],[35.05,45.57],[35.02,45.6],[35.0,45.63],[34.88,45.69],[34.83,45.72],[34.76,45.74],[34.74,45.79],[34.68,45.8],[34.68,45.82],[34.64,45.84],[34.5,45.79],[34.5,45.8],[34.62,45.91],[34.62,45.93],[34.61,45.94],[34.57,45.95],[34.53,45.91],[34.5,45.9],[34.46,45.92],[34.41,45.89],[34.39,45.89],[34.38,45.9],[34.39,45.95],[34.38,45.98],[34.36,46.0],[34.27,46.03],[34.23,46.02],[34.19,46.03],[34.18,46.02],[34.19,45.98],[34.19,45.96],[34.16,45.94],[34.14,45.96],[34.13,46.01],[34.12,46.03],[34.07,46.06],[34.0,46.07],[33.98,46.05],[33.96,46.04],[33.92,46.04],[33.89,46.06],[33.83,46.14],[33.82,46.14],[33.77,46.13],[33.71,46.18],[33.7,46.2],[33.7,46.21],[33.73,46.23],[33.78,46.23],[33.85,46.23],[33.92,46.21],[34.03,46.16],[34.08,46.14],[34.11,46.14],[34.1,46.18],[34.11,46.19],[34.13,46.19],[34.15,46.19],[34.16,46.2],[34.16,46.25],[34.16,46.27],[34.17,46.27],[34.24,46.21],[34.27,46.19],[34.3,46.18],[34.31,46.18],[34.33,46.19],[34.54,46.16],[34.55,46.14],[34.55,46.11],[34.49,46.11],[34.47,46.1],[34.43,46.02],[34.44,46.0],[34.48,45.98],[34.52,45.99],[34.59,46.02],[34.64,46.15],[34.67,46.17],[34.72,46.16],[34.75,46.13],[34.75,46.11],[34.72,46.09],[34.71,46.05],[34.74,46.03],[34.79,46.02],[34.82,45.96],[34.84,45.84],[34.91,45.79],[35.03,45.64],[35.18,45.47],[35.3,45.36],[35.43,45.29],[35.44,45.28],[35.4,45.26],[35.4,45.26],[35.4,45.26]]]}},{"type":"Feature","properties":{},"geometry":{"type":"Polygon","coordinates":[[[29.52,62.12],[29.52,62.12],[29.52,62.12],[29.49,62.09],[29.47,62.08],[29.49,62.05],[29.55,62.0],[29.61,61.98],[29.64,62.0],[29.69,62.0],[29.76,61.95],[29.78,61.91],[29.78,61.89],[29.73,61.87],[29.73,61.85],[29.69,61.83],[29.66,61.83],[29.61,61.8],[29.53,61.78],[29.48,61.74],[29.43,61.73],[29.29,61.65],[29.27,61.61],[29.12,61.6],[29.1,61.58],[28.94,61.63],[28.73,61.67],[28.63,61.64],[28.61,61.62],[28.76,61.61],[28.79,61.59],[28.72,61.58],[28.68,61.56],[28.68,61.52],[28.69,61.48],[28.65,61.48],[28.58,61.47],[28.57,61.44],[28.46,61.4],[28.41,61.37],[28.35,61.35],[28.36,61.33],[28.48,61.33],[28.64,61.35],[28.66,61.37],[28.71,61.35],[28.82,61.3],[28.87,61.25],[28.79,61.2],[28.61,61.16],[28.36,61.09],[28.29,61.08],[27.99,61.08],[27.95,61.07],[27.92,61.08],[27.89,61.11],[27.88,61.16],[27.97,61.19],[28.08,61.18],[28.17,61.15],[28.2,61.16],[28.17,61.19],[28.07,61.23],[27.86,61.25],[27.68,61.23],[27.63,61.21],[27.52,61.23],[27.41,61.26],[27.43,61.27],[27.44,61.3],[27.37,61.33],[27.3,61.33],[27.27,61.32],[27.26,61.38],[27.3,61.43],[27.27,61.47],[27.3,61.48],[27.3,61.56],[27.28,61.65],[27.33,61.69],[27.33,61.63],[27.34,61.6],[27.36,61.53],[27.46,61.52],[27.48,61.54],[27.47,61.55],[27.47,61.6],[27.49,61.62],[27.5,61.6],[27.52,61.58],[27.59,61.58],[27.66,61.61],[27.68,61.64],[27.76,61.66],[27.77,61.69],[27.71,61.73],[27.62,61.76],[27.6,61.78],[27.63,61.8],[27.82,61.73],[27.87,61.7],[27.92,61.66],[27.92,61.63],[27.95,61.6],[28.0,61.55],[28.05,61.51],[28.1,61.52],[28.13,61.55],[28.15,61.55],[28.18,61.54],[28.23,61.62],[28.25,61.72],[28.26,61.74],[28.31,61.76],[28.34,61.75],[28.37,61.75],[28.44,61.77],[28.54,61.84],[28.67,61.83],[28.81,61.83],[28.84,61.85],[28.84,61.86],[28.74,61.89],[28.7,61.92],[28.58,61.99],[28.43,62.05],[28.4,62.07],[28.3,62.1],[28.17,62.1],[28.09,62.1],[28.03,62.11],[27.93,62.13],[27.9,62.16],[27.9,62.24],[27.88,62.31],[27.88,62.33],[27.85,62.35],[27.84,62.38],[27.8,62.43],[27.76,62.43],[27.68,62.41],[27.6,62.42],[27.55,62.41],[27.49,62.44],[27.46,62.48],[27.42,62.5],[27.37,62.48],[27.3,62.48],[27.24,62.51],[27.18,62.55],[27.16,62.58],[27.19,62.57],[27.3,62.52],[27.34,62.52],[27.35,62.54],[27.37,62.56],[27.4,62.58],[27.6,62.49],[27.65,62.5],[27.67,62.51],[27.67,62.53],[27.61,62.6],[27.62,62.71],[27.65,62.73],[27.67,62.76],[27.65,62.82],[27.67,62.87],[27.68,62.91],[27.65,62.92],[27.62,62.92],[27.59,62.9],[27.56,62.88],[27.56,62.85],[27.49,62.86],[27.41,62.9],[27.39,62.94],[27.33,63.0],[27.18,63.08],[27.19,63.1],[27.21,63.12],[27.19,63.17],[27.2,63.23],[27.19,63.29],[27.21,63.31],[27.25,63.31],[27.24,63.33],[27.19,63.39],[27.17,63.44],[27.13,63.5],[27.07,63.52],[27.04,63.52],[27.02,63.5],[26.96,63.52],[26.9,63.57],[26.9,63.58],[27.11,63.55],[27.18,63.52],[27.23,63.46],[27.23,63.43],[27.21,63.42],[27.25,63.38],[27.3,63.36],[27.34,63.35],[27.36,63.32],[27.35,63.28],[27.34,63.21],[27.26,63.15],[27.36,63.07],[27.44,63.02],[27.56,63.0],[27.61,63.01],[27.68,62.98],[27.72,62.95],[27.77,62.95],[27.77,63.0],[27.74,63.06],[27.77,63.1],[27.81,63.09],[27.85,63.07],[27.85,63.03],[27.89,63.02],[28.01,63.04],[28.11,63.01],[28.28,63.03],[28.35,63.04],[28.35,63.03],[28.31,63.0],[28.26,62.98],[28.19,62.96],[28.15,62.93],[28.19,62.86],[28.14,62.83],[28.15,62.8],[28.18,62.77],[28.21,62.73],[28.24,62.71],[28.27,62.69],[28.26,62.66],[28.65,62.53],[28.8,62.46],[28.9,62.39],[28.81,62.38],[28.66,62.42],[28.53,62.47],[28.5,62.5],[28.57,62.5],[28.56,62.52],[28.48,62.56],[28.42,62.58],[28.37,62.59],[28.34,62.58],[28.27,62.57],[28.21,62.51],[28.19,62.45],[28.17,62.43],[28.1,62.44],[28.11,62.48],[28.14,62.54],[28.06,62.69],[27.98,62.73],[27.85,62.72],[27.77,62.68],[27.76,62.65],[27.8,62.63],[27.76,62.58],[27.85,62.52],[27.92,62.43],[28.04,62.41],[28.04,62.38],[27.99,62.34],[27.96,62.3],[27.97,62.26],[28.07,62.24],[28.14,62.25],[28.28,62.26],[28.28,62.28],[28.32,62.29],[28.36,62.27],[28.41,62.24],[28.51,62.22],[28.57,62.22],[28.61,62.28],[28.63,62.29],[28.67,62.31],[28.7,62.33],[28.67,62.37],[28.67,62.39],[28.69,62.38],[28.77,62.35],[28.84,62.27],[28.87,62.24],[28.85,62.21],[28.84,62.19],[28.79,62.18],[28.83,62.13],[28.98,62.14],[29.14,62.17],[29.2,62.18],[29.33,62.17],[29.35,62.19],[29.35,62.22],[29.32,62.24],[29.3,62.27],[29.3,62.31],[29.28,62.35],[29.26,62.39],[29.3,62.43],[29.3,62.48],[29.26,62.55],[29.28,62.6],[29.33,62.6],[29.35,62.57],[29.36,62.53],[29.42,62.52],[29.51,62.47],[29.63,62.42],[29.65,62.43],[29.61,62.46],[29.59,62.5],[29.59,62.53],[29.62,62.56],[29.63,62.6],[29.7,62.61],[29.78,62.58],[29.82,62.52],[29.89,62.46],[29.93,62.43],[29.83,62.39],[29.8,62.36],[29.79,62.33],[29.77,62.31],[29.69,62.32],[29.64,62.31],[29.62,62.29],[29.6,62.27],[29.65,62.22],[29.73,62.2],[29.79,62.2],[29.87,62.19],[29.96,62.16],[29.98,62.13],[29.91,62.12],[29.71,62.15],[29.69,62.14],[29.61,62.14],[29.52,62.12]],[[27.85,62.95],[27.85,62.95],[27.85,62.95],[27.84,62.91],[27.89,62.83],[28.01,62.78],[28.07,62.75],[28.11,62.76],[28.11,62.79],[28.1,62.85],[28.07,62.94],[28.06,62.98],[27.99,62.98],[27.99,62.98],[27.9,62.97],[27.85,62.95]],[[27.64,61.27],[27.64,61.27],[27.64,61.27],[27.68,61.31],[27.66,61.35],[27.63,61.38],[27.56,61.4],[27.51,61.41],[27.42,61.44],[27.36,61.42],[27.33,61.4],[27.37,61.37],[27.48,61.32],[27.59,61.27],[27.64,61.27]],[[27.96,61.48],[27.96,61.48],[27.96,61.48],[27.97,61.5],[27.95,61.53],[27.92,61.53],[27.86,61.52],[27.79,61.54],[27.73,61.55],[27.71,61.53],[27.7,61.49],[27.67,61.48],[27.59,61.49],[27.55,61.49],[27.52,61.49],[27.56,61.46],[27.66,61.43],[27.71,61.4],[27.75,61.4],[27.8,61.4],[27.91,61.44],[27.96,61.48]],[[28.5,61.48],[28.5,61.48],[28.5,61.48],[28.44,61.52],[28.46,61.56],[28.49,61.6],[28.54,61.62],[28.52,61.7],[28.48,61.72],[28.39,61.71],[28.33,61.73],[28.28,61.71],[28.28,61.66],[28.29,61.62],[28.31,61.58],[28.24,61.54],[28.24,61.52],[28.26,61.5],[28.25,61.47],[28.23,61.44],[28.24,61.39],[28.31,61.41],[28.42,61.42],[28.49,61.44],[28.5,61.48]],[[29.48,61.97],[29.48,61.97],[29.48,61.97],[29.44,62.04],[29.36,62.1],[29.32,62.13],[29.23,62.13],[29.19,62.12],[29.1,62.12],[29.02,62.12],[28.94,62.1],[28.81,62.08],[28.7,62.08],[28.69,62.04],[28.71,61.99],[28.83,61.96],[28.94,61.87],[28.99,61.8],[29.14,61.78],[29.25,61.81],[29.31,61.87],[29.33,61.94],[29.34,61.97],[29.4,61.97],[29.44,61.95],[29.47,61.95],[29.48,61.97]]]}},{"type":"Feature","properties":{},"geometry":{"type":"Polygon","coordinates":[[[84.52,47.93],[84.43,47.86],[84.39,47.82],[84.36,47.73],[84.3,47.7],[84.24,47.71],[83.99,47.84],[83.77,47.95],[83.62,48.01],[83.44,48.05],[83.26,48.09],[83.08,48.18],[83.03,48.21],[83.04,48.25],[83.18,48.25],[83.28,48.26],[83.44,48.27],[83.5,48.3],[83.53,48.38],[83.46,48.43],[83.39,48.5],[83.39,48.55],[83.42,48.6],[83.42,48.74],[83.47,48.86],[83.59,48.96],[83.75,49.04],[83.87,49.06],[84.04,49.11],[84.12,49.16],[84.1,49.24],[83.97,49.33],[83.85,49.42],[83.72,49.44],[83.66,49.44],[83.61,49.49],[83.54,49.53],[83.48,49.54],[83.43,49.57],[83.36,49.63],[83.36,49.64],[83.39,49.65],[83.61,49.61],[83.74,49.63],[83.89,49.72],[83.96,49.73],[83.96,49.7],[83.82,49.63],[83.8,49.6],[83.76,49.56],[83.73,49.54],[83.82,49.48],[84.29,49.24],[84.36,49.16],[84.33,49.12],[84.15,49.09],[83.86,48.99],[83.78,48.98],[83.61,48.91],[83.51,48.81],[83.49,48.72],[83.52,48.62],[83.61,48.44],[83.77,48.41],[83.92,48.4],[83.91,48.37],[83.68,48.35],[83.6,48.3],[83.58,48.27],[83.63,48.24],[83.74,48.2],[83.88,48.15],[84.05,48.08],[84.17,48.06],[84.33,48.02],[84.47,47.97],[84.52,47.93],[84.52,47.93],[84.52,47.93],[84.52,47.93]]]}},{"type":"Feature","properties":{},"geometry":{"type":"Polygon","coordinates":[[[-108.56,56.51],[-108.63,56.49],[-108.69,56.49],[-108.71,56.52],[-108.72,56.61],[-108.74,56.67],[-108.79,56.69],[-108.86,56.71],[-108.87,56.75],[-108.84,56.78],[-108.76,56.81],[-108.7,56.79],[-108.63,56.71],[-108.57,56.7],[-108.53,56.7],[-108.49,56.69],[-108.42,56.63],[-108.41,56.46],[-108.32,56.44],[-108.22,56.44],[-108.13,56.43],[-108.07,56.38],[-108.11,56.31],[-108.19,56.27],[-108.19,56.25],[-108.17,56.23],[-108.18,56.14],[-108.12,56.06],[-108.14,56.04],[-108.18,56.01],[-108.22,55.97],[-108.25,55.91],[-108.3,55.86],[-108.49,55.76],[-108.57,55.7],[-108.6,55.65],[-108.6,55.58],[-108.63,55.55],[-108.66,55.57],[-108.69,55.63],[-108.68,55.69],[-108.69,55.75],[-108.72,55.84],[-108.76,55.9],[-108.92,55.93],[-109.03,55.93],[-109.1,55.98],[-109.16,56.07],[-109.14,56.11],[-109.09,56.12],[-108.87,56.08],[-108.67,55.98],[-108.62,55.89],[-108.6,55.85],[-108.52,55.88],[-108.47,55.94],[-108.47,56.03],[-108.43,56.1],[-108.35,56.16],[-108.27,56.19],[-108.27,56.24],[-108.31,56.29],[-108.34,56.28],[-108.38,56.29],[-108.49,56.33],[-108.54,56.37],[-108.53,56.43],[-108.53,56.48],[-108.56,56.51],[-108.56,56.51],[-108.56,56.51],[-108.56,56.51]]]}},{"type":"Feature","properties":{},"geometry":{"type":"Polygon","coordinates":[[[-71.17,-46.53],[-71.21,-46.56],[-71.38,-46.58],[-71.63,-46.54],[-71.78,-46.5],[-72.0,-46.52],[-72.26,-46.59],[-72.55,-46.74],[-72.77,-46.87],[-72.82,-46.91],[-72.83,-46.95],[-72.86,-47.0],[-72.9,-47.01],[-72.87,-46.91],[-72.79,-46.79],[-72.71,-46.73],[-72.66,-46.66],[-72.69,-46.59],[-72.72,-46.51],[-72.69,-46.5],[-72.65,-46.56],[-72.58,-46.61],[-72.48,-46.6],[-72.24,-46.51],[-71.99,-46.44],[-71.87,-46.38],[-71.88,-46.34],[-71.87,-46.32],[-71.85,-46.32],[-71.76,-46.33],[-71.63,-46.3],[-71.61,-46.31],[-71.58,-46.36],[-71.44,-46.41],[-71.31,-46.44],[-71.22,-46.48],[-71.17,-46.53],[-71.17,-46.53],[-71.17,-46.53],[-71.17,-46.53]]]}},{"type":"Feature","properties":{},"geometry":{"type":"Polygon","coordinates":[[[26.95,62.85],[26.99,62.86],[27.09,62.84],[27.08,62.83],[27.02,62.83],[27.02,62.8],[26.96,62.79],[26.88,62.8],[26.92,62.74],[26.98,62.69],[26.95,62.65],[27.0,62.61],[26.98,62.6],[26.9,62.62],[26.85,62.61],[26.82,62.56],[26.83,62.53],[26.85,62.5],[26.89,62.5],[26.93,62.48],[26.91,62.46],[26.78,62.48],[26.74,62.49],[26.72,62.55],[26.69,62.6],[26.66,62.58],[26.67,62.55],[26.63,62.48],[26.58,62.41],[26.5,62.39],[26.43,62.37],[26.43,62.33],[26.42,62.32],[26.38,62.35],[26.38,62.38],[26.41,62.42],[26.47,62.43],[26.51,62.42],[26.51,62.45],[26.56,62.49],[26.53,62.54],[26.38,62.57],[26.27,62.55],[26.24,62.52],[26.24,62.48],[26.25,62.44],[26.29,62.41],[26.31,62.37],[26.28,62.34],[26.17,62.36],[26.13,62.33],[26.13,62.28],[26.09,62.3],[26.05,62.35],[25.99,62.37],[25.96,62.36],[25.98,62.31],[26.0,62.28],[25.97,62.25],[25.95,62.21],[25.95,62.14],[25.92,62.15],[25.9,62.2],[25.88,62.21],[25.83,62.15],[25.82,62.07],[25.88,62.02],[25.86,62.0],[25.79,61.99],[25.77,61.97],[25.7,61.96],[25.64,61.95],[25.63,61.92],[25.65,61.9],[25.7,61.89],[25.68,61.87],[25.62,61.84],[25.59,61.79],[25.62,61.77],[25.68,61.8],[25.72,61.81],[25.72,61.78],[25.68,61.71],[25.68,61.64],[25.71,61.6],[25.63,61.6],[25.59,61.59],[25.58,61.54],[25.57,61.49],[25.64,61.47],[25.61,61.44],[25.54,61.42],[25.56,61.39],[25.55,61.33],[25.58,61.31],[25.76,61.28],[25.98,61.26],[26.01,61.23],[26.03,61.21],[26.08,61.2],[26.12,61.21],[26.11,61.25],[26.16,61.31],[26.28,61.37],[26.28,61.36],[26.24,61.32],[26.25,61.28],[26.26,61.25],[26.23,61.24],[26.21,61.26],[26.17,61.27],[26.15,61.26],[26.18,61.22],[26.2,61.18],[26.18,61.15],[26.24,61.1],[26.22,61.08],[26.18,61.06],[26.18,61.04],[26.15,61.0],[26.1,60.96],[26.03,60.96],[26.07,61.0],[26.1,61.1],[26.03,61.17],[25.96,61.19],[25.91,61.18],[25.87,61.17],[25.79,61.22],[25.67,61.27],[25.62,61.26],[25.65,61.24],[25.66,61.21],[25.58,61.17],[25.53,61.11],[25.56,61.08],[25.6,61.05],[25.59,61.02],[25.55,61.03],[25.52,61.06],[25.48,61.09],[25.45,61.07],[25.41,61.06],[25.36,61.08],[25.4,61.12],[25.46,61.16],[25.5,61.23],[25.47,61.28],[25.44,61.27],[25.43,61.25],[25.41,61.25],[25.39,61.28],[25.36,61.31],[25.3,61.33],[25.27,61.35],[25.25,61.37],[25.26,61.39],[25.19,61.47],[25.19,61.53],[25.23,61.55],[25.27,61.57],[25.34,61.58],[25.4,61.58],[25.42,61.63],[25.4,61.67],[25.36,61.7],[25.23,61.76],[25.21,61.79],[25.24,61.8],[25.31,61.78],[25.39,61.79],[25.44,61.84],[25.39,61.87],[25.31,61.88],[25.32,61.9],[25.42,61.92],[25.51,61.93],[25.51,61.95],[25.54,61.99],[25.62,62.01],[25.67,62.06],[25.59,62.1],[25.5,62.11],[25.47,62.14],[25.55,62.14],[25.67,62.14],[25.71,62.16],[25.72,62.19],[25.74,62.22],[25.76,62.23],[25.82,62.25],[25.88,62.29],[25.91,62.33],[25.92,62.39],[25.9,62.44],[25.86,62.44],[25.84,62.43],[25.82,62.45],[25.81,62.49],[25.76,62.53],[25.69,62.54],[25.64,62.59],[25.63,62.63],[25.78,62.65],[25.79,62.7],[25.83,62.73],[25.89,62.72],[25.89,62.76],[25.83,62.78],[25.82,62.79],[25.86,62.83],[25.87,62.87],[25.93,62.91],[25.87,62.99],[25.83,63.01],[25.74,63.05],[25.62,63.07],[25.54,63.03],[25.52,62.97],[25.5,62.96],[25.44,62.97],[25.37,63.01],[25.38,63.03],[25.44,63.05],[25.45,63.1],[25.44,63.13],[25.51,63.15],[25.59,63.21],[25.62,63.22],[25.62,63.18],[25.68,63.14],[25.79,63.09],[25.82,63.1],[25.84,63.13],[25.9,63.11],[25.93,63.08],[25.99,63.04],[26.08,62.99],[26.08,62.98],[26.02,62.99],[26.01,62.97],[26.08,62.93],[26.22,62.85],[26.36,62.77],[26.37,62.73],[26.3,62.73],[26.2,62.78],[26.1,62.83],[26.07,62.82],[26.04,62.8],[26.01,62.75],[26.01,62.71],[25.98,62.71],[26.02,62.67],[26.03,62.63],[25.91,62.65],[25.82,62.61],[25.83,62.53],[25.94,62.46],[26.02,62.48],[26.06,62.52],[26.1,62.52],[26.1,62.49],[26.07,62.45],[26.08,62.42],[26.16,62.39],[26.18,62.46],[26.18,62.55],[26.22,62.57],[26.34,62.61],[26.36,62.63],[26.45,62.63],[26.47,62.7],[26.39,62.79],[26.36,62.83],[26.36,62.85],[26.45,62.8],[26.5,62.75],[26.56,62.71],[26.69,62.64],[26.79,62.61],[26.81,62.62],[26.83,62.66],[26.82,62.7],[26.75,62.74],[26.69,62.79],[26.67,62.82],[26.59,62.87],[26.57,62.9],[26.59,62.9],[26.68,62.85],[26.73,62.84],[26.74,62.87],[26.71,62.93],[26.73,62.96],[26.76,62.96],[26.77,62.98],[26.92,63.01],[27.0,63.03],[27.03,63.02],[26.98,63.0],[26.93,62.94],[26.95,62.92],[26.93,62.91],[26.89,62.92],[26.89,62.89],[26.93,62.86],[26.95,62.85],[26.95,62.85],[26.95,62.85],[26.95,62.85]]]}},{"type":"Feature","properties":{},"geometry":{"type":"Polygon","coordinates":[[[30.36,65.15],[30.4,65.16],[30.47,65.12],[30.65,65.07],[30.8,65.1],[30.9,65.12],[30.93,65.16],[30.97,65.18],[31.35,65.18],[31.58,65.14],[31.62,65.11],[31.63,65.06],[31.66,65.03],[31.83,64.96],[31.94,64.9],[31.95,64.86],[31.91,64.88],[31.75,64.93],[31.66,64.94],[31.55,65.0],[31.51,65.04],[31.51,65.07],[31.48,65.1],[31.37,65.12],[31.25,65.12],[31.19,65.1],[31.18,65.08],[31.13,65.08],[31.02,65.09],[30.99,65.08],[30.91,65.07],[30.84,65.04],[30.81,64.98],[30.74,64.94],[30.66,64.94],[30.54,64.93],[30.56,64.95],[30.61,64.98],[30.72,64.99],[30.71,65.02],[30.53,65.06],[30.4,65.11],[30.36,65.15]]]}},{"type":"Feature","properties":{},"geometry":{"type":"Polygon","coordinates":[[[35.3,47.49],[35.27,47.45],[35.21,47.45],[35.05,47.43],[34.96,47.41],[34.81,47.46],[34.59,47.52],[34.42,47.49],[34.19,47.42],[34.18,47.39],[34.18,47.35],[34.17,47.32],[34.1,47.32],[33.9,47.16],[33.72,46.94],[33.7,46.9],[33.69,46.86],[33.56,46.82],[33.54,46.83],[33.58,46.88],[33.63,47.03],[33.66,47.05],[33.67,47.04],[33.7,47.06],[33.76,47.12],[33.78,47.16],[33.83,47.21],[33.93,47.28],[33.96,47.33],[33.96,47.36],[33.95,47.45],[33.94,47.54],[33.98,47.56],[34.07,47.56],[34.15,47.54],[34.21,47.54],[34.24,47.57],[34.27,47.59],[34.32,47.57],[34.38,47.56],[34.44,47.57],[34.49,47.59],[34.73,47.58],[35.0,47.59],[35.09,47.68],[35.09,47.82],[35.11,47.84],[35.13,47.84],[35.24,47.65],[35.3,47.49],[35.3,47.49],[35.3,47.49]]]}},{"type":"Feature","properties":{},"geometry":{"type":"Polygon","coordinates":[[[-105.04,21.8],[-105.04,21.8],[-105.06,21.81],[-105.04,21.8],[-105.04,21.8],[-105.04,21.8]]]}},{"type":"Feature","properties":{},"geometry":{"type":"Polygon","coordinates":[[[48.39,54.17],[48.38,54.23],[48.4,54.34],[48.4,54.45],[48.42,54.6],[48.55,54.65],[48.75,54.68],[48.81,54.73],[48.83,54.8],[48.86,54.87],[48.86,55.01],[48.98,55.07],[49.16,55.16],[49.17,55.29],[49.1,55.35],[49.05,55.44],[49.06,55.48],[49.12,55.48],[49.19,55.38],[49.23,55.34],[49.3,55.32],[49.36,55.34],[49.33,55.38],[49.33,55.45],[49.33,55.52],[49.37,55.54],[49.37,55.52],[49.37,55.46],[49.45,55.4],[49.58,55.39],[49.79,55.38],[50.0,55.42],[50.09,55.46],[50.22,55.44],[50.38,55.43],[50.48,55.46],[50.68,55.45],[50.83,55.48],[51.13,55.5],[51.25,55.53],[51.33,55.5],[51.35,55.5],[51.41,55.49],[51.47,55.51],[51.47,55.59],[51.4,55.68],[51.41,55.77],[51.45,55.81],[51.48,55.83],[51.47,55.8],[51.46,55.7],[51.52,55.63],[51.63,55.65],[51.76,55.72],[51.87,55.7],[51.94,55.7],[51.89,55.67],[51.8,55.68],[51.75,55.68],[51.73,55.64],[51.71,55.59],[51.62,55.57],[51.55,55.56],[51.52,55.5],[51.41,55.44],[51.21,55.49],[51.17,55.46],[51.2,55.44],[51.22,55.4],[51.18,55.36],[51.13,55.39],[51.07,55.42],[50.88,55.45],[50.76,55.43],[50.73,55.41],[49.89,55.29],[49.81,55.24],[49.69,55.19],[49.52,55.13],[49.46,55.11],[49.45,55.07],[49.45,55.05],[49.4,55.02],[49.32,55.01],[49.22,55.02],[49.14,55.0],[49.01,54.97],[48.94,54.9],[48.97,54.83],[49.03,54.81],[49.1,54.8],[49.08,54.78],[48.99,54.73],[48.98,54.67],[48.97,54.64],[48.94,54.62],[48.9,54.58],[48.91,54.55],[48.9,54.53],[48.86,54.5],[48.86,54.46],[48.79,54.45],[48.63,54.44],[48.53,54.39],[48.5,54.33],[48.55,54.24],[48.66,54.17],[48.76,54.15],[48.8,54.13],[48.81,54.1],[48.85,54.05],[49.02,54.02],[49.28,54.07],[49.4,54.12],[49.56,54.18],[49.73,54.23],[49.74,54.19],[49.67,54.16],[49.54,54.13],[49.44,54.04],[49.31,53.97],[49.22,53.93],[49.22,53.88],[49.27,53.82],[49.32,53.79],[49.35,53.77],[49.37,53.73],[49.37,53.69],[49.34,53.7],[49.31,53.72],[49.28,53.73],[49.19,53.81],[49.13,53.82],[49.09,53.79],[49.07,53.71],[49.06,53.61],[49.09,53.53],[49.25,53.5],[49.56,53.5],[49.88,53.49],[49.9,53.46],[49.85,53.43],[49.49,53.44],[49.32,53.4],[49.26,53.35],[49.23,53.28],[49.09,53.27],[48.8,53.28],[48.76,53.32],[48.92,53.31],[49.14,53.31],[49.21,53.34],[49.2,53.37],[49.11,53.4],[48.99,53.44],[49.01,53.46],[48.96,53.54],[48.87,53.65],[48.88,53.75],[48.9,53.83],[48.88,53.87],[48.81,53.94],[48.66,54.04],[48.57,54.1],[48.47,54.12],[48.39,54.17],[48.39,54.17],[48.39,54.17]]]}},{"type":"Feature","properties":{},"geometry":{"type":"Polygon","coordinates":[[[-113.64,35.83],[-113.67,35.84],[-113.73,35.92],[-113.79,36.01],[-113.89,36.08],[-113.95,36.13],[-113.99,36.16],[-114.04,36.16],[-114.11,36.03],[-114.21,36.01],[-114.29,36.03],[-114.32,36.08],[-114.37,36.1],[-114.41,36.09],[-114.45,36.08],[-114.5,36.11],[-114.64,36.11],[-114.71,36.02],[-114.74,36.01],[-114.77,36.02],[-114.81,36.07],[-114.82,36.12],[-114.65,36.15],[-114.51,36.19],[-114.43,36.24],[-114.41,36.35],[-114.39,36.48],[-114.36,36.51],[-114.34,36.52],[-114.33,36.44],[-114.36,36.33],[-114.37,36.21],[-114.3,36.11],[-114.23,36.05],[-114.16,36.08],[-114.1,36.15],[-114.03,36.24],[-114.0,36.24],[-113.92,36.18],[-113.86,36.12],[-113.78,36.05],[-113.7,35.96],[-113.63,35.86],[-113.64,35.83],[-113.64,35.83],[-113.64,35.83]]]}},{"type":"Feature","properties":{},"geometry":{"type":"Polygon","coordinates":[[[-110.37,37.9],[-110.37,37.87],[-110.41,37.81],[-110.43,37.71],[-110.56,37.58],[-110.67,37.45],[-110.7,37.39],[-110.78,37.31],[-110.84,37.22],[-110.79,37.19],[-110.65,37.21],[-110.68,37.18],[-110.79,37.17],[-111.0,37.11],[-111.11,37.08],[-111.19,37.02],[-111.31,37.02],[-111.38,36.98],[-111.46,36.92],[-111.47,36.93],[-111.53,37.03],[-111.44,37.06],[-111.39,37.05],[-111.34,37.06],[-111.3,37.1],[-111.26,37.15],[-111.21,37.12],[-111.18,37.14],[-111.16,37.16],[-111.07,37.14],[-110.96,37.15],[-110.89,37.26],[-110.86,37.33],[-110.8,37.35],[-110.74,37.43],[-110.76,37.53],[-110.73,37.54],[-110.68,37.53],[-110.6,37.59],[-110.55,37.63],[-110.52,37.67],[-110.45,37.77],[-110.44,37.87],[-110.4,37.91],[-110.37,37.9],[-110.37,37.9],[-110.37,37.9]]]}},{"type":"Feature","properties":{},"geometry":{"type":"Polygon","coordinates":[[[-98.29,57.49],[-98.29,57.49],[-98.29,57.49],[-98.29,57.49],[-98.2,57.41],[-98.1,57.39],[-98.02,57.4],[-97.99,57.39],[-98.03,57.36],[-98.11,57.32],[-98.19,57.22],[-98.23,57.14],[-98.25,57.11],[-98.39,57.09],[-98.56,57.06],[-98.69,56.98],[-98.78,56.89],[-98.85,56.84],[-98.94,56.84],[-99.0,56.86],[-99.07,56.85],[-99.22,56.74],[-99.34,56.73],[-99.47,56.73],[-99.55,56.71],[-99.54,56.68],[-99.55,56.65],[-99.57,56.64],[-99.64,56.68],[-99.69,56.73],[-99.66,56.75],[-99.55,56.78],[-99.41,56.9],[-99.38,56.96],[-99.33,56.99],[-99.23,56.95],[-99.16,56.96],[-99.12,57.0],[-99.07,57.05],[-99.01,57.08],[-99.01,57.05],[-99.04,56.97],[-99.01,56.93],[-98.9,56.92],[-98.87,56.95],[-98.88,57.0],[-98.86,57.06],[-98.77,57.07],[-98.7,57.12],[-98.66,57.18],[-98.65,57.22],[-98.67,57.26],[-98.63,57.28],[-98.54,57.27],[-98.51,57.3],[-98.52,57.35],[-98.54,57.46],[-98.59,57.53],[-98.6,57.59],[-98.56,57.61],[-98.54,57.6],[-98.54,57.57],[-98.53,57.54],[-98.47,57.55],[-98.4,57.59],[-98.29,57.64],[-98.21,57.65],[-98.21,57.62],[-98.22,57.58],[-98.27,57.53],[-98.29,57.49]]]}},{"type":"Feature","properties":{},"geometry":{"type":"Polygon","coordinates":[[[-40.92,-9.26],[-40.92,-9.26],[-40.92,-9.26],[-40.82,-9.41],[-40.82,-9.44],[-40.84,-9.46],[-41.1,-9.5],[-41.14,-9.58],[-41.15,-9.66],[-41.19,-9.7],[-41.27,-9.71],[-41.35,-9.74],[-41.46,-9.79],[-41.54,-9.8],[-41.56,-9.79],[-41.65,-9.82],[-41.82,-9.82],[-41.87,-9.77],[-41.94,-9.79],[-42.0,-9.83],[-42.08,-9.89],[-42.17,-10.02],[-42.17,-10.08],[-42.07,-10.12],[-41.99,-10.15],[-41.92,-10.24],[-41.87,-10.3],[-41.92,-10.29],[-41.94,-10.25],[-41.99,-10.2],[-42.12,-10.15],[-42.2,-10.14],[-42.24,-10.11],[-42.28,-10.11],[-42.34,-10.1],[-42.36,-10.19],[-42.25,-10.46],[-42.16,-10.67],[-42.2,-10.75],[-42.24,-10.9],[-42.27,-10.93],[-42.3,-10.95],[-42.34,-11.0],[-42.35,-11.0],[-42.29,-10.84],[-42.24,-10.66],[-42.26,-10.55],[-42.32,-10.5],[-42.37,-10.43],[-42.41,-10.41],[-42.48,-10.47],[-42.54,-10.55],[-42.61,-10.68],[-42.73,-10.84],[-42.73,-10.88],[-42.74,-11.04],[-42.76,-11.14],[-42.81,-11.19],[-42.83,-11.25],[-42.86,-11.25],[-42.9,-11.26],[-42.93,-11.24],[-42.98,-11.17],[-43.02,-11.14],[-43.07,-11.11],[-43.15,-11.14],[-43.16,-11.11],[-43.11,-11.0],[-43.09,-10.94],[-43.05,-10.92],[-42.97,-10.83],[-42.89,-10.77],[-42.92,-10.71],[-42.95,-10.69],[-42.99,-10.66],[-42.99,-10.62],[-42.95,-10.59],[-42.9,-10.65],[-42.84,-10.74],[-42.78,-10.74],[-42.75,-10.71],[-42.75,-10.61],[-42.79,-10.56],[-42.85,-10.5],[-42.85,-10.46],[-42.82,-10.46],[-42.73,-10.52],[-42.67,-10.54],[-42.63,-10.51],[-42.61,-10.48],[-42.68,-10.4],[-42.69,-10.35],[-42.67,-10.29],[-42.64,-10.3],[-42.56,-10.35],[-42.5,-10.33],[-42.49,-10.27],[-42.53,-10.21],[-42.6,-10.09],[-42.79,-10.0],[-42.82,-9.96],[-42.79,-9.95],[-42.75,-9.96],[-42.73,-9.92],[-42.71,-9.95],[-42.69,-9.97],[-42.68,-9.95],[-42.64,-9.97],[-42.61,-10.0],[-42.59,-10.03],[-42.57,-10.07],[-42.55,-10.08],[-42.51,-10.07],[-42.48,-10.04],[-42.52,-9.98],[-42.51,-9.95],[-42.47,-9.96],[-42.42,-10.0],[-42.36,-9.98],[-42.34,-9.95],[-42.33,-9.91],[-42.3,-9.87],[-42.29,-9.83],[-42.31,-9.77],[-42.35,-9.71],[-42.32,-9.7],[-42.22,-9.7],[-42.2,-9.61],[-42.14,-9.61],[-42.09,-9.59],[-42.08,-9.55],[-42.05,-9.51],[-42.0,-9.52],[-41.98,-9.57],[-41.92,-9.62],[-41.74,-9.56],[-41.59,-9.59],[-41.5,-9.59],[-41.46,-9.6],[-41.45,-9.59],[-41.37,-9.62],[-41.33,-9.61],[-41.3,-9.59],[-41.26,-9.59],[-41.22,-9.51],[-41.22,-9.43],[-41.26,-9.36],[-41.24,-9.35],[-41.19,-9.37],[-41.17,-9.35],[-41.19,-9.31],[-41.18,-9.28],[-41.13,-9.29],[-41.06,-9.28],[-41.04,-9.24],[-41.03,-9.19],[-41.05,-9.15],[-41.04,-9.13],[-41.04,-9.06],[-41.03,-9.0],[-40.98,-9.02],[-40.96,-9.04],[-40.93,-9.06],[-40.95,-9.17],[-40.92,-9.26]],[[-42.8,-10.96],[-42.8,-10.96],[-42.8,-10.96],[-42.85,-10.94],[-42.84,-10.9],[-42.8,-10.87],[-42.77,-10.84],[-42.78,-10.83],[-42.85,-10.85],[-42.89,-10.9],[-42.99,-10.94],[-43.0,-10.96],[-42.9,-10.95],[-42.88,-10.98],[-42.92,-11.04],[-42.93,-11.08],[-42.91,-11.11],[-42.88,-11.15],[-42.85,-11.14],[-42.81,-11.08],[-42.8,-10.96]]]}},{"type":"Feature","properties":{},"geometry":{"type":"Polygon","coordinates":[[[26.57,61.62],[26.57,61.62],[26.54,61.61],[26.47,61.61],[26.35,61.66],[26.24,61.72],[26.18,61.73],[26.12,61.72],[26.08,61.7],[26.07,61.68],[26.09,61.66],[26.1,61.65],[26.12,61.66],[26.14,61.67],[26.17,61.65],[26.18,61.63],[26.17,61.6],[26.16,61.56],[26.15,61.55],[26.11,61.54],[26.06,61.55],[26.01,61.59],[25.96,61.62],[25.9,61.65],[25.89,61.68],[25.93,61.69],[25.95,61.72],[25.97,61.74],[25.95,61.77],[25.94,61.79],[25.94,61.8],[26.03,61.77],[26.13,61.77],[26.18,61.8],[26.22,61.84],[26.24,61.84],[26.25,61.82],[26.27,61.78],[26.28,61.75],[26.28,61.73],[26.29,61.72],[26.33,61.71],[26.35,61.71],[26.41,61.72],[26.44,61.73],[26.47,61.74],[26.51,61.72],[26.54,61.69],[26.56,61.65],[26.57,61.62],[26.57,61.62],[26.57,61.62],[26.57,61.62]]]}},{"type":"Feature","properties":{},"geometry":{"type":"Polygon","coordinates":[[[170.0,-44.29],[169.94,-44.29],[169.89,-44.28],[169.88,-44.25],[169.86,-44.22],[169.87,-44.18],[169.87,-44.09],[169.86,-43.99],[169.88,-43.97],[169.89,-44.0],[169.89,-44.04],[169.91,-44.05],[169.95,-44.01],[169.98,-43.97],[169.98,-44.02],[169.93,-44.09],[169.91,-44.17],[169.92,-44.22],[169.95,-44.26],[169.96,-44.27],[170.0,-44.29],[170.0,-44.29],[170.0,-44.29]]]}},{"type":"Feature","properties":{},"geometry":{"type":"Polygon","coordinates":[[[-106.22,47.59],[-106.25,47.55],[-106.27,47.55],[-106.25,47.6],[-106.25,47.64],[-106.29,47.7],[-106.32,47.76],[-106.34,47.78],[-106.36,47.81],[-106.38,47.85],[-106.42,47.88],[-106.45,47.88],[-106.48,47.86],[-106.52,47.83],[-106.55,47.79],[-106.56,47.75],[-106.6,47.75],[-106.68,47.74],[-106.77,47.72],[-106.81,47.72],[-106.84,47.69],[-106.85,47.65],[-106.86,47.63],[-106.88,47.65],[-106.91,47.67],[-106.94,47.67],[-106.99,47.64],[-107.02,47.64],[-107.03,47.67],[-107.18,47.68],[-107.31,47.68],[-107.33,47.68],[-107.39,47.65],[-107.43,47.63],[-107.51,47.62],[-107.61,47.62],[-107.72,47.56],[-107.85,47.47],[-107.91,47.39],[-107.92,47.41],[-107.91,47.47],[-107.92,47.51],[-107.93,47.54],[-107.95,47.56],[-107.98,47.57],[-108.04,47.58],[-108.17,47.58],[-108.2,47.6],[-108.17,47.61],[-108.05,47.61],[-107.96,47.6],[-107.93,47.59],[-107.89,47.54],[-107.84,47.53],[-107.78,47.57],[-107.71,47.61],[-107.69,47.65],[-107.69,47.67],[-107.71,47.69],[-107.6,47.68],[-107.46,47.66],[-107.42,47.68],[-107.38,47.72],[-107.34,47.73],[-107.29,47.72],[-107.23,47.72],[-107.12,47.73],[-106.99,47.72],[-106.93,47.73],[-106.94,47.75],[-106.93,47.76],[-106.88,47.78],[-106.82,47.78],[-106.77,47.79],[-106.74,47.81],[-106.71,47.82],[-106.65,47.84],[-106.6,47.86],[-106.58,47.88],[-106.57,47.91],[-106.57,47.94],[-106.59,47.96],[-106.54,47.98],[-106.43,48.03],[-106.41,48.02],[-106.37,48.01],[-106.33,47.99],[-106.33,47.95],[-106.36,47.93],[-106.34,47.88],[-106.28,47.84],[-106.25,47.81],[-106.27,47.79],[-106.25,47.77],[-106.24,47.74],[-106.23,47.69],[-106.22,47.63],[-106.22,47.59],[-106.22,47.59],[-106.22,47.59],[-106.22,47.59]]]}},{"type":"Feature","properties":{},"geometry":{"type":"Polygon","coordinates":[[[-132.1,59.61],[-132.12,59.6],[-132.16,59.63],[-132.21,59.69],[-132.32,59.83],[-132.4,59.92],[-132.61,60.05],[-132.83,60.13],[-132.96,60.2],[-133.01,60.25],[-133.19,60.38],[-133.24,60.45],[-133.14,60.43],[-132.98,60.3],[-132.8,60.19],[-132.7,60.15],[-132.59,60.12],[-132.52,60.1],[-132.46,60.05],[-132.36,59.99],[-132.32,59.95],[-132.28,59.9],[-132.23,59.85],[-132.23,59.84],[-132.21,59.82],[-132.2,59.77],[-132.12,59.69],[-132.09,59.64],[-132.1,59.61],[-132.1,59.61],[-132.1,59.61]]]}},{"type":"Feature","properties":{},"geometry":{"type":"Polygon","coordinates":[[[24.61,61.65],[24.56,61.64],[24.49,61.61],[24.46,61.59],[24.51,61.55],[24.47,61.53],[24.34,61.52],[24.26,61.5],[24.19,61.46],[24.17,61.42],[24.17,61.4],[24.15,61.38],[24.13,61.34],[24.16,61.33],[24.24,61.31],[24.28,61.29],[24.24,61.29],[24.16,61.28],[24.08,61.26],[24.02,61.25],[24.01,61.23],[24.04,61.21],[24.09,61.19],[24.18,61.18],[24.24,61.2],[24.3,61.19],[24.36,61.16],[24.37,61.15],[24.35,61.14],[24.33,61.14],[24.34,61.12],[24.4,61.07],[24.44,61.03],[24.41,61.04],[24.35,61.07],[24.28,61.09],[24.03,61.15],[23.87,61.18],[23.78,61.21],[23.77,61.28],[23.8,61.26],[23.84,61.23],[23.92,61.21],[23.95,61.22],[23.98,61.26],[24.02,61.28],[24.04,61.31],[24.02,61.37],[24.04,61.42],[24.17,61.48],[24.25,61.53],[24.31,61.55],[24.36,61.59],[24.33,61.61],[24.31,61.62],[24.32,61.63],[24.37,61.63],[24.42,61.62],[24.45,61.63],[24.48,61.65],[24.5,61.67],[24.49,61.68],[24.52,61.69],[24.6,61.7],[24.69,61.72],[24.7,61.7],[24.67,61.67],[24.66,61.66],[24.64,61.66],[24.61,61.65],[24.61,61.65],[24.61,61.65],[24.61,61.65]]]}},{"type":"Feature","properties":{},"geometry":{"type":"Polygon","coordinates":[[[103.53,53.64],[103.53,53.64],[103.53,53.64],[103.53,53.64],[103.73,53.6],[103.74,53.55],[103.74,53.5],[103.73,53.48],[103.69,53.51],[103.61,53.55],[103.49,53.56],[103.44,53.52],[103.43,53.47],[103.44,53.22],[103.37,53.11],[103.34,53.23],[103.34,53.57],[103.27,53.68],[103.1,53.74],[102.87,53.79],[102.93,53.82],[103.12,53.77],[103.21,53.81],[103.12,53.94],[103.0,54.07],[102.99,54.16],[103.02,54.28],[103.11,54.42],[103.17,54.42],[103.22,54.49],[103.19,54.63],[103.09,54.71],[103.03,54.78],[103.07,54.92],[103.23,55.05],[103.28,55.16],[103.27,55.3],[103.18,55.49],[103.15,55.58],[103.14,55.68],[103.07,55.79],[102.99,55.85],[102.96,55.96],[102.92,56.06],[102.85,56.1],[102.8,56.11],[102.72,56.14],[102.59,56.16],[102.53,56.16],[102.51,56.16],[102.49,56.13],[102.48,56.11],[102.44,56.09],[102.39,56.09],[102.31,56.11],[102.24,56.1],[102.18,56.07],[101.99,56.03],[102.0,55.96],[101.98,55.9],[101.91,55.83],[101.91,55.78],[101.99,55.73],[102.08,55.72],[102.09,55.7],[102.05,55.66],[102.1,55.63],[102.33,55.59],[102.39,55.54],[102.37,55.48],[102.32,55.44],[102.31,55.4],[102.33,55.35],[102.34,55.32],[102.39,55.3],[102.43,55.29],[102.39,55.26],[102.34,55.23],[102.32,55.19],[102.28,55.14],[102.23,55.1],[102.19,55.07],[102.12,55.05],[102.14,55.08],[102.18,55.12],[102.21,55.15],[102.26,55.18],[102.27,55.22],[102.33,55.27],[102.31,55.3],[102.28,55.35],[102.26,55.41],[102.27,55.45],[102.31,55.5],[102.3,55.53],[102.22,55.51],[102.07,55.46],[101.79,55.41],[101.76,55.44],[101.76,55.47],[101.98,55.52],[101.97,55.56],[101.91,55.59],[101.81,55.65],[101.79,55.77],[101.74,55.81],[101.5,55.89],[101.41,55.92],[101.32,55.95],[101.27,55.98],[101.35,55.99],[101.48,55.97],[101.61,55.97],[101.63,55.98],[101.71,55.97],[101.73,56.01],[101.73,56.07],[101.7,56.09],[101.67,56.13],[101.71,56.17],[101.7,56.22],[101.71,56.26],[101.77,56.29],[101.8,56.29],[101.87,56.24],[101.93,56.24],[101.96,56.23],[101.92,56.17],[101.95,56.12],[102.05,56.16],[102.25,56.23],[102.26,56.25],[102.46,56.25],[102.47,56.31],[102.52,56.35],[102.58,56.33],[102.59,56.3],[102.63,56.25],[102.73,56.25],[102.8,56.26],[102.82,56.23],[102.87,56.2],[102.94,56.2],[103.0,56.22],[103.02,56.21],[103.01,56.14],[103.02,56.05],[103.06,55.92],[103.14,55.81],[103.25,55.71],[103.25,55.67],[103.23,55.56],[103.33,55.36],[103.36,55.22],[103.35,55.13],[103.3,55.02],[103.19,54.88],[103.15,54.8],[103.22,54.72],[103.28,54.58],[103.29,54.48],[103.35,54.32],[103.42,54.21],[103.46,54.16],[103.4,54.17],[103.32,54.3],[103.26,54.34],[103.21,54.31],[103.14,54.24],[103.1,54.15],[103.16,54.0],[103.3,53.87],[103.3,53.84],[103.33,53.78],[103.44,53.68],[103.53,53.64]]]}},{"type":"Feature","properties":{},"geometry":{"type":"Polygon","coordinates":[[[15.76,63.76],[15.64,63.81],[15.58,63.78],[15.54,63.76],[15.54,63.8],[15.52,63.85],[15.3,63.93],[15.26,63.96],[15.39,63.93],[15.42,63.94],[15.42,63.96],[15.38,64.0],[15.32,64.03],[15.32,64.11],[15.24,64.16],[15.13,64.25],[15.04,64.28],[14.33,64.39],[14.19,64.45],[14.09,64.52],[13.96,64.56],[13.71,64.64],[13.8,64.66],[14.1,64.56],[14.19,64.48],[14.36,64.42],[14.49,64.42],[14.66,64.38],[14.85,64.35],[14.94,64.34],[14.99,64.34],[15.01,64.33],[15.05,64.34],[15.11,64.34],[15.21,64.32],[15.26,64.26],[15.32,64.16],[15.42,64.08],[15.39,64.05],[15.4,64.02],[15.47,63.97],[15.58,63.87],[15.74,63.83],[15.82,63.75],[15.76,63.76],[15.76,63.76],[15.76,63.76]]]}},{"type":"Feature","properties":{},"geometry":{"type":"Polygon","coordinates":[[[13.29,64.74],[13.29,64.74],[13.29,64.74],[13.29,64.74],[13.4,64.79],[13.53,64.73],[13.63,64.69],[13.6,64.68],[13.37,64.69],[13.23,64.67],[13.2,64.68],[13.29,64.74]]]}},{"type":"Feature","properties":{},"geometry":{"type":"Polygon","coordinates":[[[-99.18,26.76],[-99.18,26.76],[-99.18,26.76],[-99.18,26.76],[-99.15,26.75],[-99.12,26.75],[-99.11,26.73],[-99.15,26.65],[-99.15,26.59],[-99.17,26.56],[-99.2,26.56],[-99.24,26.58],[-99.25,26.67],[-99.28,26.76],[-99.33,26.8],[-99.39,26.79],[-99.39,26.81],[-99.36,26.82],[-99.37,26.89],[-99.4,26.95],[-99.46,27.03],[-99.46,27.06],[-99.41,27.04],[-99.37,27.0],[-99.28,26.92],[-99.22,26.91],[-99.22,26.8],[-99.18,26.76]]]}},{"type":"Feature","properties":{},"geometry":{"type":"Polygon","coordinates":[[[-68.68,53.8],[-68.7,53.77],[-68.73,53.69],[-68.71,53.61],[-68.72,53.58],[-68.78,53.58],[-68.85,53.59],[-68.87,53.58],[-68.87,53.52],[-68.9,53.48],[-68.93,53.47],[-68.98,53.46],[-69.06,53.43],[-69.08,53.44],[-69.05,53.49],[-68.98,53.56],[-68.95,53.61],[-68.87,53.64],[-68.83,53.68],[-68.84,53.72],[-68.87,53.74],[-68.85,53.75],[-68.81,53.77],[-68.78,53.77],[-68.77,53.8],[-68.81,53.85],[-68.91,53.88],[-68.97,53.91],[-69.01,53.94],[-69.06,53.96],[-69.22,53.95],[-69.24,53.96],[-69.23,53.98],[-69.2,53.99],[-69.17,53.99],[-69.15,54.0],[-69.16,54.02],[-69.15,54.04],[-69.12,54.02],[-69.06,54.01],[-69.02,54.03],[-69.0,54.04],[-68.98,54.01],[-68.95,54.0],[-68.9,53.99],[-68.86,53.95],[-68.85,53.91],[-68.73,53.84],[-68.68,53.81],[-68.68,53.8],[-68.68,53.8],[-68.68,53.8]]]}},{"type":"Feature","properties":{},"geometry":{"type":"Polygon","coordinates":[[[-70.23,54.44],[-70.27,54.44],[-70.31,54.41],[-70.42,54.36],[-70.5,54.41],[-70.52,54.44],[-70.46,54.43],[-70.42,54.41],[-70.36,54.43],[-70.21,54.48],[-70.1,54.47],[-69.97,54.49],[-69.93,54.52],[-69.91,54.55],[-69.91,54.62],[-69.92,54.65],[-69.96,54.68],[-70.03,54.68],[-70.01,54.72],[-69.98,54.74],[-69.93,54.73],[-69.9,54.7],[-69.86,54.62],[-69.84,54.56],[-69.84,54.52],[-69.77,54.49],[-69.77,54.47],[-69.88,54.46],[-69.95,54.43],[-69.99,54.43],[-70.02,54.44],[-70.15,54.44],[-70.23,54.44],[-70.23,54.44],[-70.23,54.44]]]}},{"type":"Feature","properties":{},"geometry":{"type":"Polygon","coordinates":[[[-122.23,40.87],[-122.23,40.87],[-122.23,40.87],[-122.23,40.87],[-122.24,40.81],[-122.23,40.79],[-122.12,40.8],[-122.09,40.78],[-122.1,40.77],[-122.15,40.75],[-122.24,40.75],[-122.36,40.72],[-122.41,40.72],[-122.43,40.74],[-122.42,40.77],[-122.4,40.83],[-122.36,40.82],[-122.35,40.78],[-122.3,40.8],[-122.26,40.86],[-122.23,40.87]]]}},{"type":"Feature","properties":{},"geometry":{"type":"Polygon","coordinates":[[[-51.42,-20.43],[-51.42,-20.43],[-51.42,-20.43],[-51.42,-20.43],[-51.42,-20.4],[-51.41,-20.37],[-51.4,-20.35],[-51.44,-20.28],[-51.43,-20.26],[-51.38,-20.28],[-51.31,-20.28],[-51.27,-20.26],[-51.18,-20.26],[-51.16,-20.24],[-51.17,-20.18],[-51.15,-20.15],[-51.1,-20.18],[-51.08,-20.17],[-51.05,-20.1],[-51.05,-20.01],[-51.05,-19.78],[-51.03,-19.72],[-51.0,-19.67],[-50.97,-19.73],[-50.96,-19.91],[-50.95,-19.98],[-50.81,-19.93],[-50.67,-19.84],[-50.58,-19.82],[-50.67,-19.95],[-50.79,-20.0],[-50.84,-20.03],[-50.94,-20.09],[-50.99,-20.17],[-50.98,-20.23],[-50.93,-20.26],[-50.91,-20.32],[-50.98,-20.31],[-51.04,-20.33],[-51.09,-20.34],[-51.11,-20.34],[-51.15,-20.35],[-51.21,-20.37],[-51.25,-20.39],[-51.18,-20.46],[-51.06,-20.51],[-51.07,-20.53],[-51.2,-20.5],[-51.3,-20.44],[-51.36,-20.45],[-51.4,-20.44],[-51.42,-20.43]]]}},{"type":"Feature","properties":{},"geometry":{"type":"Polygon","coordinates":[[[-72.61,-40.66],[-72.61,-40.66],[-72.61,-40.66],[-72.61,-40.66],[-72.54,-40.62],[-72.39,-40.62],[-72.36,-40.64],[-72.37,-40.66],[-72.46,-40.7],[-72.57,-40.69],[-72.61,-40.66]]]}},{"type":"Feature","properties":{},"geometry":{"type":"Polygon","coordinates":[[[9.13,47.67],[9.13,47.67],[9.13,47.67],[8.88,47.66],[8.95,47.69],[8.98,47.7],[8.98,47.73],[9.0,47.75],[9.09,47.72],[9.13,47.67]]]}},{"type":"Feature","properties":{},"geometry":{"type":"Polygon","coordinates":[[[36.87,62.2],[36.87,62.2],[36.87,62.2],[36.87,62.2],[36.83,62.22],[36.78,62.24],[36.77,62.26],[36.78,62.29],[36.8,62.36],[36.81,62.43],[36.85,62.46],[36.91,62.47],[37.02,62.43],[37.03,62.37],[37.01,62.3],[37.03,62.26],[36.98,62.21],[36.9,62.18],[36.87,62.2]]]}},{"type":"Feature","properties":{},"geometry":{"type":"Polygon","coordinates":[[[38.91,60.59],[38.91,60.59],[38.91,60.59],[38.91,60.59],[38.89,60.58],[38.89,60.66],[38.84,60.73],[38.87,60.78],[38.94,60.77],[39.09,60.72],[39.17,60.68],[39.19,60.62],[39.19,60.5],[39.15,60.44],[39.1,60.39],[39.03,60.4],[39.03,60.41],[39.04,60.44],[39.07,60.47],[39.05,60.52],[39.01,60.57],[38.96,60.59],[38.91,60.59]]]}},{"type":"Feature","properties":{},"geometry":{"type":"Polygon","coordinates":[[[31.55,64.44],[31.55,64.44],[31.55,64.44],[31.55,64.44],[31.35,64.47],[31.37,64.5],[31.47,64.48],[31.59,64.48],[31.65,64.47],[31.74,64.48],[31.79,64.5],[31.78,64.52],[31.76,64.56],[31.82,64.55],[31.9,64.51],[32.01,64.49],[32.04,64.46],[32.0,64.41],[31.87,64.42],[31.55,64.44]]]}},{"type":"Feature","properties":{},"geometry":{"type":"Polygon","coordinates":[[[32.41,67.46],[32.34,67.44],[32.25,67.41],[32.12,67.43],[31.9,67.51],[31.94,67.54],[32.07,67.54],[32.22,67.54],[32.34,67.49],[32.41,67.46],[32.41,67.46],[32.41,67.46]]]}},{"type":"Feature","properties":{},"geometry":{"type":"Polygon","coordinates":[[[35.16,67.81],[35.16,67.81],[35.16,67.81],[35.16,67.81],[35.14,67.78],[35.13,67.75],[35.08,67.71],[35.0,67.8],[35.06,67.83],[35.13,67.87],[35.16,67.91],[35.14,67.93],[35.09,67.94],[35.1,67.98],[35.22,68.06],[35.25,68.1],[35.29,68.08],[35.3,68.01],[35.24,67.96],[35.26,67.92],[35.26,67.88],[35.22,67.84],[35.16,67.81]]]}},{"type":"Feature","properties":{},"geometry":{"type":"Polygon","coordinates":[[[139.88,53.56],[139.88,53.56],[139.88,53.56],[139.88,53.56],[139.92,53.53],[139.85,53.46],[139.81,53.4],[139.82,53.36],[139.82,53.34],[139.75,53.35],[139.67,53.39],[139.66,53.46],[139.75,53.52],[139.88,53.56]]]}},{"type":"Feature","properties":{},"geometry":{"type":"Polygon","coordinates":[[[-155.45,58.64],[-155.45,58.64],[-155.45,58.64],[-155.45,58.64],[-155.58,58.62],[-155.65,58.6],[-155.65,58.58],[-155.5,58.55],[-155.47,58.53],[-155.52,58.51],[-155.65,58.52],[-155.75,58.55],[-155.84,58.6],[-156.03,58.6],[-156.16,58.6],[-156.32,58.63],[-156.38,58.66],[-156.41,58.69],[-156.34,58.71],[-156.2,58.71],[-156.2,58.72],[-156.15,58.73],[-156.09,58.71],[-156.04,58.7],[-156.01,58.69],[-155.84,58.68],[-155.56,58.66],[-155.43,58.66],[-155.45,58.64]]]}},{"type":"Feature","properties":{},"geometry":{"type":"Polygon","coordinates":[[[-162.84,61.04],[-162.84,61.04],[-162.84,61.04],[-162.84,61.04],[-163.03,61.08],[-163.0,61.11],[-162.8,61.08],[-162.71,61.08],[-162.84,61.04]]]}},{"type":"Feature","properties":{},"geometry":{"type":"Polygon","coordinates":[[[-151.17,60.23],[-151.17,60.23],[-151.17,60.23],[-151.17,60.23],[-151.15,60.25],[-151.06,60.3],[-150.89,60.27],[-150.72,60.16],[-150.65,60.12],[-150.68,60.05],[-150.72,60.05],[-150.77,60.08],[-150.83,60.13],[-150.94,60.17],[-151.02,60.21],[-151.06,60.22],[-151.17,60.23]]]}},{"type":"Feature","properties":{},"geometry":{"type":"Polygon","coordinates":[[[-160.0,61.35],[-160.0,61.35],[-160.0,61.35],[-160.0,61.35],[-160.09,61.34],[-160.13,61.36],[-160.1,61.41],[-160.04,61.42],[-159.97,61.4],[-159.93,61.37],[-160.0,61.35]]]}},{"type":"Feature","properties":{},"geometry":{"type":"Polygon","coordinates":[[[-162.31,60.95],[-162.31,60.95],[-162.31,60.95],[-162.31,60.95],[-162.3,60.92],[-162.26,60.89],[-162.2,60.85],[-162.24,60.83],[-162.28,60.82],[-162.37,60.83],[-162.4,60.9],[-162.4,60.95],[-162.36,60.99],[-162.31,60.95]]]}},{"type":"Feature","properties":{},"geometry":{"type":"Polygon","coordinates":[[[-163.71,61.56],[-163.71,61.56],[-163.71,61.56],[-163.71,61.56],[-163.64,61.52],[-163.7,61.47],[-163.73,61.52],[-163.87,61.58],[-163.96,61.62],[-163.97,61.65],[-163.93,61.65],[-163.78,61.6],[-163.71,61.56]]]}},{"type":"Feature","properties":{},"geometry":{"type":"Polygon","coordinates":[[[-163.46,62.67],[-163.46,62.67],[-163.46,62.67],[-163.46,62.67],[-163.5,62.65],[-163.52,62.57],[-163.58,62.6],[-163.62,62.68],[-163.56,62.69],[-163.46,62.71],[-163.41,62.68],[-163.46,62.67]]]}},{"type":"Feature","properties":{},"geometry":{"type":"Polygon","coordinates":[[[-87.66,34.81],[-87.66,34.81],[-87.66,34.81],[-87.66,34.81],[-87.54,34.85],[-87.38,34.85],[-87.27,34.81],[-87.01,34.68],[-86.93,34.61],[-86.9,34.57],[-86.96,34.57],[-87.32,34.77],[-87.51,34.79],[-87.64,34.76],[-87.7,34.77],[-87.66,34.81]]]}},{"type":"Feature","properties":{},"geometry":{"type":"Polygon","coordinates":[[[90.4,33.53],[90.4,33.53],[90.4,33.53],[90.4,33.53],[90.39,33.44],[90.32,33.36],[90.25,33.33],[90.1,33.38],[90.03,33.39],[90.01,33.44],[90.05,33.45],[90.19,33.42],[90.29,33.47],[90.28,33.57],[90.29,33.64],[90.32,33.7],[90.4,33.53]]]}},{"type":"Feature","properties":{},"geometry":{"type":"Polygon","coordinates":[[[89.71,33.47],[89.71,33.47],[89.71,33.47],[89.71,33.47],[89.77,33.47],[89.83,33.48],[89.88,33.51],[89.94,33.52],[89.97,33.48],[89.92,33.38],[89.89,33.33],[89.83,33.26],[89.81,33.29],[89.79,33.42],[89.73,33.45],[89.71,33.47]]]}},{"type":"Feature","properties":{},"geometry":{"type":"Polygon","coordinates":[[[76.17,31.9],[76.17,31.9],[76.17,31.9],[76.17,31.9],[76.08,31.91],[75.97,31.97],[75.94,32.06],[75.94,32.14],[75.98,32.15],[76.09,32.07],[76.17,31.96],[76.17,31.9]]]}},{"type":"Feature","properties":{},"geometry":{"type":"Polygon","coordinates":[[[91.47,31.95],[91.47,31.95],[91.47,31.95],[91.47,31.95],[91.44,31.99],[91.42,32.06],[91.45,32.11],[91.51,32.13],[91.53,32.08],[91.53,31.97],[91.52,31.94],[91.47,31.95]]]}},{"type":"Feature","properties":{},"geometry":{"type":"Polygon","coordinates":[[[87.41,31.85],[87.41,31.85],[87.41,31.85],[87.41,31.85],[87.42,31.91],[87.49,31.95],[87.55,31.97],[87.59,31.95],[87.6,31.9],[87.53,31.85],[87.41,31.85]]]}},{"type":"Feature","properties":{},"geometry":{"type":"Polygon","coordinates":[[[-76.68,51.37],[-76.68,51.37],[-76.68,51.37],[-76.68,51.37],[-76.55,51.36],[-76.56,51.34],[-76.75,51.29],[-77.03,51.33],[-76.98,51.34],[-76.9,51.35],[-76.86,51.38],[-76.84,51.4],[-76.82,51.42],[-76.76,51.39],[-76.68,51.37]]]}},{"type":"Feature","properties":{},"geometry":{"type":"Polygon","coordinates":[[[-91.42,51.12],[-91.42,51.12],[-91.42,51.12],[-91.42,51.12],[-91.39,51.07],[-91.54,51.09],[-91.59,51.12],[-91.65,51.15],[-91.61,51.17],[-91.5,51.16],[-91.44,51.16],[-91.42,51.14],[-91.42,51.12]]]}},{"type":"Feature","properties":{},"geometry":{"type":"Polygon","coordinates":[[[-91.97,51.96],[-91.97,51.96],[-91.97,51.96],[-91.97,51.96],[-91.95,51.98],[-91.9,51.95],[-91.91,51.91],[-91.93,51.89],[-91.97,51.92],[-91.99,51.94],[-91.97,51.96]]]}},{"type":"Feature","properties":{},"geometry":{"type":"Polygon","coordinates":[[[-78.62,51.08],[-78.62,51.08],[-78.62,51.08],[-78.62,51.08],[-78.55,51.03],[-78.81,51.1],[-78.83,51.15],[-78.79,51.15],[-78.72,51.11],[-78.62,51.08]]]}},{"type":"Feature","properties":{},"geometry":{"type":"Polygon","coordinates":[[[-78.63,47.6],[-78.63,47.6],[-78.63,47.6],[-78.63,47.6],[-78.7,47.58],[-78.76,47.57],[-78.79,47.59],[-78.8,47.63],[-78.81,47.66],[-78.79,47.69],[-78.72,47.68],[-78.61,47.68],[-78.57,47.66],[-78.58,47.62],[-78.6,47.61],[-78.63,47.6]]]}},{"type":"Feature","properties":{},"geometry":{"type":"Polygon","coordinates":[[[-77.27,47.59],[-77.27,47.59],[-77.27,47.59],[-77.27,47.59],[-77.24,47.55],[-77.18,47.55],[-77.13,47.56],[-77.1,47.55],[-77.07,47.51],[-76.96,47.5],[-76.93,47.49],[-76.97,47.44],[-77.12,47.48],[-77.18,47.46],[-77.18,47.41],[-77.16,47.39],[-77.18,47.37],[-77.26,47.35],[-77.29,47.39],[-77.27,47.46],[-77.3,47.51],[-77.32,47.57],[-77.3,47.61],[-77.29,47.61],[-77.27,47.59]]]}},{"type":"Feature","properties":{},"geometry":{"type":"Polygon","coordinates":[[[-108.09,64.72],[-108.09,64.72],[-108.09,64.72],[-108.09,64.72],[-108.08,64.74],[-108.04,64.75],[-108.02,64.75],[-107.98,64.72],[-107.99,64.71],[-108.06,64.7],[-108.09,64.72]]]}},{"type":"Feature","properties":{},"geometry":{"type":"Polygon","coordinates":[[[-108.19,64.65],[-108.19,64.65],[-108.19,64.65],[-108.19,64.65],[-108.21,64.63],[-108.24,64.62],[-108.48,64.56],[-108.53,64.56],[-108.49,64.6],[-108.33,64.65],[-108.24,64.68],[-108.18,64.69],[-108.19,64.65]]]}},{"type":"Feature","properties":{},"geometry":{"type":"Polygon","coordinates":[[[-108.93,64.6],[-108.93,64.6],[-108.93,64.6],[-108.93,64.6],[-108.99,64.61],[-109.06,64.59],[-109.09,64.59],[-109.1,64.6],[-109.1,64.66],[-109.06,64.69],[-109.07,64.71],[-109.06,64.73],[-108.93,64.71],[-108.89,64.66],[-108.85,64.61],[-108.82,64.55],[-108.85,64.56],[-108.93,64.6]]]}},{"type":"Feature","properties":{},"geometry":{"type":"Polygon","coordinates":[[[-109.25,64.59],[-109.25,64.59],[-109.25,64.59],[-109.25,64.59],[-109.28,64.61],[-109.34,64.66],[-109.36,64.7],[-109.36,64.73],[-109.35,64.76],[-109.29,64.76],[-109.24,64.74],[-109.26,64.73],[-109.28,64.7],[-109.27,64.66],[-109.15,64.58],[-109.16,64.55],[-109.22,64.54],[-109.27,64.54],[-109.24,64.56],[-109.25,64.59]]]}},{"type":"Feature","properties":{},"geometry":{"type":"Polygon","coordinates":[[[-78.87,71.16],[-78.87,71.16],[-78.87,71.16],[-78.87,71.16],[-78.79,71.15],[-78.67,71.13],[-78.67,71.11],[-78.7,71.1],[-78.9,71.09],[-79.21,71.1],[-79.34,71.12],[-79.37,71.15],[-79.33,71.17],[-79.28,71.17],[-79.09,71.18],[-78.88,71.17],[-78.87,71.16]]]}},{"type":"Feature","properties":{},"geometry":{"type":"Polygon","coordinates":[[[-104.51,69.72],[-104.51,69.72],[-104.51,69.72],[-104.51,69.72],[-104.65,69.73],[-104.86,69.86],[-104.76,69.86],[-104.48,69.84],[-104.42,69.83],[-104.36,69.82],[-104.39,69.76],[-104.51,69.72]]]}},{"type":"Feature","properties":{},"geometry":{"type":"Polygon","coordinates":[[[-98.38,67.38],[-98.38,67.38],[-98.38,67.38],[-98.38,67.38],[-98.3,67.35],[-98.23,67.33],[-98.27,67.29],[-98.42,67.19],[-98.49,67.21],[-98.55,67.24],[-98.55,67.27],[-98.52,67.35],[-98.49,67.42],[-98.43,67.41],[-98.38,67.38]]]}},{"type":"Feature","properties":{},"geometry":{"type":"Polygon","coordinates":[[[-96.28,55.24],[-96.28,55.24],[-96.28,55.24],[-96.28,55.24],[-96.21,55.27],[-96.05,55.29],[-95.85,55.36],[-95.79,55.4],[-95.7,55.4],[-95.68,55.36],[-95.73,55.31],[-95.83,55.28],[-96.11,55.22],[-96.23,55.21],[-96.28,55.24]]]}},{"type":"Feature","properties":{},"geometry":{"type":"Polygon","coordinates":[[[-102.36,54.58],[-102.36,54.58],[-102.36,54.58],[-102.36,54.58],[-102.34,54.65],[-102.29,54.72],[-102.2,54.74],[-102.12,54.71],[-102.11,54.6],[-102.13,54.49],[-102.17,54.46],[-102.26,54.45],[-102.34,54.47],[-102.38,54.52],[-102.36,54.58]]]}},{"type":"Feature","properties":{},"geometry":{"type":"Polygon","coordinates":[[[-105.81,54.23],[-105.81,54.23],[-105.81,54.23],[-105.81,54.23],[-105.73,54.41],[-105.71,54.49],[-105.68,54.51],[-105.64,54.49],[-105.57,54.46],[-105.55,54.39],[-105.57,54.33],[-105.64,54.27],[-105.67,54.22],[-105.71,54.15],[-105.71,54.09],[-105.76,54.06],[-105.8,54.08],[-105.81,54.16],[-105.81,54.23]]]}},{"type":"Feature","properties":{},"geometry":{"type":"Polygon","coordinates":[[[-70.93,53.52],[-70.93,53.52],[-70.93,53.52],[-70.93,53.52],[-70.94,53.48],[-70.9,53.46],[-70.86,53.45],[-70.84,53.43],[-70.86,53.41],[-70.98,53.43],[-71.05,53.5],[-71.13,53.57],[-71.12,53.59],[-71.02,53.6],[-70.95,53.56],[-70.93,53.52]]]}},{"type":"Feature","properties":{},"geometry":{"type":"Polygon","coordinates":[[[-60.9,52.55],[-60.9,52.55],[-60.9,52.55],[-60.9,52.55],[-60.72,52.44],[-60.71,52.41],[-60.66,52.36],[-60.6,52.33],[-60.6,52.32],[-60.65,52.32],[-60.74,52.38],[-60.79,52.42],[-60.92,52.48],[-60.97,52.52],[-61.15,52.59],[-61.3,52.6],[-61.14,52.62],[-60.9,52.55]]]}},{"type":"Feature","properties":{},"geometry":{"type":"Polygon","coordinates":[[[-112.0,64.66],[-112.0,64.66],[-112.0,64.66],[-112.0,64.66],[-111.99,64.69],[-112.15,64.78],[-112.33,64.86],[-112.34,64.9],[-112.11,64.85],[-111.89,64.7],[-111.93,64.66],[-111.97,64.64],[-112.0,64.66]]]}},{"type":"Feature","properties":{},"geometry":{"type":"Polygon","coordinates":[[[-83.61,48.38],[-83.61,48.38],[-83.61,48.38],[-83.61,48.38],[-83.69,48.34],[-83.78,48.3],[-83.83,48.31],[-83.93,48.31],[-83.85,48.34],[-83.72,48.42],[-83.64,48.43],[-83.62,48.43],[-83.57,48.42],[-83.43,48.51],[-83.47,48.43],[-83.61,48.38]]]}},{"type":"Feature","properties":{},"geometry":{"type":"Polygon","coordinates":[[[-107.06,55.82],[-107.06,55.82],[-107.06,55.82],[-107.06,55.82],[-107.06,55.86],[-107.01,55.89],[-106.95,55.92],[-106.9,55.93],[-106.88,55.91],[-106.98,55.83],[-106.97,55.82],[-107.01,55.81],[-107.06,55.82]]]}},{"type":"Feature","properties":{},"geometry":{"type":"Polygon","coordinates":[[[-106.47,55.63],[-106.47,55.63],[-106.47,55.63],[-106.47,55.63],[-106.51,55.64],[-106.52,55.66],[-106.55,55.67],[-106.54,55.69],[-106.44,55.73],[-106.34,55.76],[-106.33,55.74],[-106.36,55.69],[-106.34,55.66],[-106.39,55.65],[-106.47,55.63]]]}},{"type":"Feature","properties":{},"geometry":{"type":"Polygon","coordinates":[[[-102.6,62.66],[-102.6,62.66],[-102.6,62.66],[-102.6,62.66],[-102.58,62.6],[-102.56,62.55],[-102.55,62.5],[-102.58,62.45],[-102.67,62.42],[-102.74,62.41],[-102.68,62.56],[-102.69,62.6],[-102.77,62.67],[-102.77,62.7],[-102.69,62.76],[-102.66,62.76],[-102.6,62.66]]]}},{"type":"Feature","properties":{},"geometry":{"type":"Polygon","coordinates":[[[-103.45,61.37],[-103.45,61.37],[-103.45,61.37],[-103.45,61.37],[-103.47,61.39],[-103.48,61.43],[-103.46,61.51],[-103.34,61.56],[-103.23,61.64],[-103.21,61.68],[-103.14,61.65],[-103.19,61.59],[-103.3,61.52],[-103.39,61.39],[-103.45,61.37]]]}},{"type":"Feature","properties":{},"geometry":{"type":"Polygon","coordinates":[[[-103.84,58.61],[-103.84,58.61],[-103.84,58.61],[-103.84,58.61],[-103.8,58.67],[-103.79,58.69],[-103.66,58.7],[-103.62,58.68],[-103.6,58.66],[-103.62,58.61],[-103.67,58.55],[-103.77,58.57],[-103.82,58.58],[-103.84,58.61]]]}},{"type":"Feature","properties":{},"geometry":{"type":"Polygon","coordinates":[[[-69.15,56.51],[-69.15,56.51],[-69.15,56.51],[-69.15,56.51],[-69.12,56.33],[-69.08,56.27],[-68.81,56.09],[-68.8,56.05],[-69.12,56.25],[-69.19,56.33],[-69.2,56.43],[-69.27,56.5],[-69.22,56.56],[-69.13,56.65],[-69.14,56.61],[-69.15,56.51]]]}},{"type":"Feature","properties":{},"geometry":{"type":"Polygon","coordinates":[[[-88.93,66.58],[-88.93,66.58],[-88.93,66.58],[-88.93,66.58],[-89.09,66.48],[-89.07,66.56],[-88.96,66.61],[-88.79,66.63],[-88.82,66.6],[-88.93,66.58]]]}},{"type":"Feature","properties":{},"geometry":{"type":"Polygon","coordinates":[[[-88.2,66.63],[-88.2,66.63],[-88.2,66.63],[-88.2,66.63],[-88.09,66.6],[-88.21,66.58],[-88.28,66.63],[-88.4,66.66],[-88.55,66.64],[-88.68,66.58],[-88.71,66.6],[-88.71,66.63],[-88.66,66.66],[-88.61,66.71],[-88.57,66.71],[-88.46,66.7],[-88.34,66.71],[-88.2,66.63]]]}},{"type":"Feature","properties":{},"geometry":{"type":"Polygon","coordinates":[[[122.82,-23.68],[122.77,-23.66],[122.64,-23.54],[122.61,-23.47],[122.7,-23.32],[122.7,-23.27],[122.76,-23.26],[122.88,-23.25],[122.93,-23.28],[122.95,-23.43],[122.93,-23.59],[122.88,-23.66],[122.82,-23.68],[122.82,-23.68],[122.82,-23.68]]]}},{"type":"Feature","properties":{},"geometry":{"type":"Polygon","coordinates":[[[128.6,-22.65],[128.38,-22.6],[128.32,-22.49],[128.34,-22.4],[128.43,-22.37],[128.48,-22.34],[128.6,-22.31],[128.79,-22.22],[128.91,-22.12],[128.93,-22.06],[129.0,-22.01],[129.14,-22.0],[129.22,-22.04],[129.2,-22.08],[129.07,-22.17],[129.06,-22.27],[129.14,-22.34],[129.22,-22.37],[129.22,-22.42],[129.16,-22.45],[129.1,-22.5],[129.03,-22.56],[128.9,-22.65],[128.82,-22.68],[128.6,-22.65],[128.6,-22.65],[128.6,-22.65]]]}},{"type":"Feature","properties":{},"geometry":{"type":"Polygon","coordinates":[[[135.9,-32.33],[135.89,-32.24],[135.92,-32.15],[136.05,-31.97],[136.05,-31.9],[135.99,-31.84],[135.85,-31.74],[135.81,-31.67],[135.79,-31.62],[135.75,-31.59],[135.71,-31.6],[135.69,-31.61],[135.64,-31.59],[135.61,-31.51],[135.63,-31.44],[135.64,-31.4],[135.62,-31.38],[135.6,-31.37],[135.56,-31.35],[135.52,-31.31],[135.49,-31.28],[135.44,-31.23],[135.42,-31.1],[135.43,-31.06],[135.49,-31.08],[135.61,-31.19],[135.78,-31.24],[135.89,-31.22],[135.96,-31.22],[136.08,-31.25],[136.11,-31.3],[136.1,-31.35],[136.11,-31.42],[136.15,-31.5],[136.2,-31.58],[136.27,-31.85],[136.31,-31.93],[136.25,-32.15],[136.26,-32.21],[136.24,-32.24],[136.18,-32.25],[136.12,-32.23],[136.06,-32.21],[135.97,-32.23],[135.92,-32.32],[135.9,-32.33],[135.9,-32.33],[135.9,-32.33]]]}},{"type":"Feature","properties":{},"geometry":{"type":"Polygon","coordinates":[[[137.83,-31.72],[137.78,-31.86],[137.75,-31.9],[137.71,-31.88],[137.61,-31.81],[137.6,-31.78],[137.67,-31.73],[137.7,-31.66],[137.73,-31.33],[137.7,-31.27],[137.65,-31.24],[137.56,-31.16],[137.53,-31.11],[137.56,-31.08],[137.63,-31.06],[137.66,-31.03],[137.66,-31.0],[137.64,-30.83],[137.62,-30.77],[137.63,-30.67],[137.6,-30.63],[137.43,-30.63],[137.39,-30.57],[137.38,-30.47],[137.33,-30.37],[137.26,-30.29],[137.21,-30.22],[137.23,-30.18],[137.32,-30.22],[137.42,-30.31],[137.48,-30.38],[137.6,-30.43],[137.75,-30.49],[137.84,-30.6],[137.93,-30.72],[138.0,-30.87],[138.03,-30.95],[138.02,-31.0],[138.03,-31.06],[138.13,-31.26],[138.11,-31.39],[137.83,-31.72],[137.83,-31.72],[137.83,-31.72]]]}},{"type":"Feature","properties":{},"geometry":{"type":"Polygon","coordinates":[[[139.94,-30.96],[139.92,-31.03],[139.88,-31.08],[139.84,-31.13],[139.8,-31.12],[139.74,-31.08],[139.66,-31.03],[139.61,-31.01],[139.52,-30.93],[139.49,-30.88],[139.55,-30.77],[139.72,-30.57],[139.9,-30.37],[139.95,-30.32],[140.01,-30.34],[140.04,-30.42],[140.03,-30.52],[139.98,-30.85],[139.94,-30.96],[139.94,-30.96],[139.94,-30.96]]]}},{"type":"Feature","properties":{},"geometry":{"type":"Polygon","coordinates":[[[137.91,-29.1],[137.78,-29.04],[137.62,-29.05],[137.48,-29.01],[137.41,-29.03],[137.34,-29.03],[137.3,-28.99],[137.24,-28.89],[137.15,-28.89],[137.13,-28.92],[137.12,-28.98],[137.07,-29.01],[137.02,-29.01],[136.95,-28.95],[136.89,-28.83],[136.92,-28.76],[136.92,-28.69],[136.88,-28.45],[136.91,-28.43],[136.97,-28.39],[136.99,-28.31],[136.97,-28.2],[136.91,-28.1],[136.89,-28.06],[136.83,-28.04],[136.78,-28.02],[136.8,-27.97],[136.89,-27.91],[137.03,-27.86],[137.33,-27.97],[137.45,-28.09],[137.57,-28.12],[137.67,-28.12],[137.7,-28.14],[137.71,-28.2],[137.72,-28.28],[137.77,-28.35],[137.73,-28.39],[137.71,-28.54],[137.68,-28.56],[137.68,-28.65],[137.79,-28.84],[137.91,-28.99],[138.01,-29.05],[138.01,-29.09],[137.91,-29.1],[137.91,-29.1],[137.91,-29.1]]]}}]}